STARLINK-5065           
1 55641U 23021P   26068.72729863  .00000024  00000+0  97892-5 0  9990
2 55641  70.0008 184.4940 0003150 268.0552  92.0246 14.98329574168791
UM5-RIBAT               
1 60554U 24149CQ  26068.79561721  .00004725  00000+0  37993-3 0  9991
2 60554  97.6776 147.9138 0003272  87.0399 273.1199 15.00468196 85282
